GLOBALSTAR M068         
1 32266U 07048D   25090.49513264 -.00000028  00000+0  42339-3 0  9992
2 32266  51.9876 179.0878 0000438 348.8677  24.4344 12.62818681807745
GLOBALSTAR M079         
1 37188U 10054A   25090.52170528 -.00000083  00000+0  11780-3 0  9994
2 37188  52.0066  16.2109 0000808  88.2305  83.4762 12.62272263666640
GLOBALSTAR M074         
1 37189U 10054B   25090.54814962 -.00000087  00000+0  94068-4 0  9999
2 37189  52.0044  15.4666 0000418  83.8817  86.6468 12.62267593667258
GLOBALSTAR M076         
1 37190U 10054C   25090.57402157 -.00000087  00000+0  95829-4 0  9999
2 37190  52.0058  15.5473 0000624 104.1368  66.9858 12.62260193666970
GLOBALSTAR M077         
1 37191U 10054D   25090.40289095 -.00000072  00000+0  17702-3 0  9993
2 37191  52.0093 332.9089 0000729  84.8788  86.0111 12.62272528667325
GLOBALSTAR M075         
1 37192U 10054E   25090.26346744 -.00000109  00000+0 -30719-4 0  9999
2 37192  51.9952  58.7930 0000372  78.8701  59.4183 12.62262738666007
GLOBALSTAR M073         
1 37193U 10054F   25090.42954881 -.00000066  00000+0  21333-3 0  9997
2 37193  52.0081 332.0544 0000771  93.0936  78.3158 12.62269705668010
GLOBALSTAR M083         
1 37739U 11033A   25090.57747740 -.00000071  00000+0  18141-3 0  9990
2 37739  51.9853 280.4397 0000933  89.7279 335.4268 12.62261829637053
GLOBALSTAR M088         
1 37740U 11033B   25090.53961308 -.00000072  00000+0  17518-3 0  9994
2 37740  51.9724 186.1086 0000601 111.1375 262.6084 12.62264761632597
GLOBALSTAR M091         
1 37741U 11033C   25090.49410752 -.00000067  00000+0  20269-3 0  9993
2 37741  51.9982 149.6654 0000573  92.1058  13.9240 12.62266660633371
GLOBALSTAR M085         
1 37742U 11033D   25090.49278778 -.00000104  00000+0 -34911-5 0  9998
2 37742  51.9850 100.7744 0000482  81.1904  78.9822 12.62266961633888
GLOBALSTAR M081         
1 37743U 11033E   25090.52042296 -.00000094  00000+0  54128-4 0  9995
2 37743  51.9940 103.4293 0000519 103.9843  61.9027 12.62262379634030
GLOBALSTAR M089         
1 37744U 11033F   25090.21010705 -.00000106  00000+0 -13525-4 0  9993
2 37744  51.9933  58.6148 0000258 113.2315 262.0761 12.62267968634848
GLOBALSTAR M084         
1 38040U 11080A   25089.97965388 -.00000083  00000+0  11648-3 0  9998
2 38040  52.0004 286.5677 0000650 115.7758 231.5288 12.62264408612782
GLOBALSTAR M080         
1 38041U 11080B   25090.84974154 -.00000086  00000+0  98936-4 0  9997
2 38041  52.0056 285.4996 0000824 130.1105 332.3418 12.62270898613160
GLOBALSTAR M082         
1 38042U 11080C   25090.68469779 -.00000105  00000+0 -57256-5 0  9996
2 38042  52.0062 241.4360 0000896  77.4926 295.5344 12.62264687613884
GLOBALSTAR M092         
1 38043U 11080D   25090.37632014 -.00000077  00000+0  15122-3 0  9998
2 38043  52.0105 332.7479 0000660  82.8587  88.7602 12.62261716612125
GLOBALSTAR M090         
1 38044U 11080E   25090.56714405 -.00000108  00000+0 -24186-4 0  9992
2 38044  51.9873 235.7023 0000838  96.7882 341.2774 12.62268621613818
GLOBALSTAR M086         
1 38045U 11080F   25090.59410259 -.00000095  00000+0  47681-4 0  9995
2 38045  51.9886 236.1653 0001570 130.9914 310.0483 12.62268747613762
GLOBALSTAR M097         
1 39072U 13005A   25090.84043024 -.00000074  00000+0  16873-3 0  9990
2 39072  52.0032 149.8843 0000635 111.4970 248.5964 12.62271396561121
GLOBALSTAR M093         
1 39073U 13005B   25090.41776421 -.00000073  00000+0  17233-3 0  9998
2 39073  51.9795 144.5958 0000602 110.6883 249.4048 12.62263329560942
GLOBALSTAR M094         
1 39074U 13005C   25090.57634647 -.00000120  00000+0 -91170-4 0  9996
2 39074  51.9962  58.4151 0000693  84.8384 275.2562 12.62269363562578
GLOBALSTAR M096         
1 39075U 13005D   25090.58961059 -.00000102  00000+0  11873-4 0  9999
2 39075  52.0055 106.8313 0000592  86.9117 273.1817 12.62269949561846
GLOBALSTAR M078         
1 39076U 13005E   25090.56269347 -.00000159  00000+0 -30908-3 0  9991
2 39076  51.9872 191.5266 0000949  43.5745 316.5197 12.62259183560113
GLOBALSTAR M095         
1 39077U 13005F   25090.58941549 -.00000065  00000+0  21373-3 0  9996
2 39077  51.9791 188.6822 0000916  81.7194 278.3776 12.62268359559970
GLOBALSTAR M087         
1 52888U 22064A   25090.38251583 -.00000072  00000+0  17714-3 0  9998
2 52888  51.9812 330.7179 0000864  77.3868 282.7095 12.62270120135214
